0 CZ-4B R/B
1 33410U 08053C   13281.48398432  .00003485  00000-0  29381-3 0  6165
2 33410 097.5583 263.2943 0135298 027.4122 333.4151 14.91917126269294
0 CZ-4B R/B
1 33410U 08053C   13282.49000910  .00004448  00000-0  37343-3 0  6176
2 33410 097.5583 264.2596 0135191 024.0681 336.6777 14.91931455269441
0 CZ-4B R/B
1 33410U 08053C   13283.49603432  .00008693  00000-0  72000-3 0  6192
2 33410 097.5577 265.2239 0135206 020.6838 340.0287 14.91935585269591
0 CZ-4B R/B
1 33410U 08053C   13283.83136249  .00005339  00000-0  44711-3 0  6188
2 33410 097.5583 265.5465 0135157 019.6205 341.0144 14.91938698269640
0 CZ-4B R/B
1 33410U 08053C   13286.11164162  .00003415  00000-0  28804-3 0  6208
2 33410 097.5580 267.7351 0134949 012.0184 348.4201 14.91958801269986
0 CZ-4B R/B
1 33410U 08053C   13287.11763699  .00003417  00000-0  28829-3 0  6219
2 33410 097.5576 268.7006 0134789 008.6346 351.7146 14.91964526270137
0 CZ-4B R/B
1 33410U 08053C   13288.12362806  .00005728  00000-0  47955-3 0  6225
2 33410 097.5572 269.6659 0134637 005.2223 355.0364 14.91971875270286
0 CZ-4B R/B
1 33410U 08053C   13289.46494163  .00004984  00000-0  41813-3 0  6236
2 33410 097.5573 270.9527 0134460 000.7213 359.4175 14.91982132270487
0 CZ-4B R/B
1 33410U 08053C   13290.53798572  .00005338  00000-0  44743-3 0  6247
2 33410 097.5576 271.9822 0134314 357.1526 002.8914 14.91991091270645
0 CZ-4B R/B
1 33410U 08053C   13291.81221636  .00004939  00000-0  41455-3 0  6255
2 33410 097.5581 273.2049 0134124 352.9090 007.0228 14.92002397270834
0 CZ-4B R/B
1 33410U 08053C   13293.01937375  .00004830  00000-0  40565-3 0  6265
2 33410 097.5586 274.3631 0133930 348.9143 010.9132 14.92013324271016
0 CZ-4B R/B
1 33410U 08053C   13294.09239511  .00005648  00000-0  47339-3 0  6276
2 33410 097.5593 275.3929 0133822 345.3406 014.3947 14.92022408271170
0 CZ-4B R/B
1 33410U 08053C   13295.43366346  .00005645  00000-0  47317-3 0  6286
2 33410 097.5599 276.6803 0133681 340.8619 018.7603 14.92036396271370
